TIANQI-4B               
1 44843U 19087F   24034.49699193  .00035796  00000+0  62231-3 0  9997
2 44843  97.5245 214.9883 0008252 319.1683  40.8949 15.50692715231865
TYVAK-0092              
1 44852U 19089A   24034.52601891  .00034519  00000+0  14036-2 0  9992
2 44852  36.9566 108.4275 0008511 141.4192 218.7167 15.23641238228126
TYVAK-0129              
1 44853U 19089B   24034.52391715  .00031017  00000+0  12014-2 0  9998
2 44853  36.9587 107.4925 0009920 138.8091 221.3409 15.25279237228244
DUCHIFAT-3              
1 44854U 19089C   24034.51401254  .00011639  00000+0  67455-3 0  9996
2 44854  36.9587 143.5201 0007832  67.6023 292.5552 15.11621753227851
ANGELS                  
1 44876U 19092D   24034.50766090  .00006239  00000+0  25578-3 0  9995
2 44876  97.4746 223.1081 0011681  75.5477 284.7055 15.24561410228829
OPS-SAT                 
1 44878U 19092F   24034.52111384  .00058849  00000+0  93360-3 0  9997
2 44878  97.4578 233.7558 0006202  15.3239 344.8201 15.53165654229443
TIANQIN 1 (CAS-6)       
1 44879U 19093A   24034.50968881  .00003512  00000+0  40870-3 0  9994
2 44879  97.8473 115.7973 0014431  40.9515 319.2781 14.85864915223180
ETRSS-1                 
1 44880U 19093B   24034.49873300  .00003729  00000+0  43220-3 0  9997
2 44880  97.8479 115.8804 0014727  42.4397 317.7954 14.85990331223171
TIANYAN 01              
1 44881U 19093C   24034.47771768  .00001229  00000+0  15660-3 0  9991
2 44881  97.8412 113.8480 0015529  47.0312 313.2201 14.83232438223076
TIANYAN 02              
1 44882U 19093D   24034.52485727  .00004842  00000+0  53204-3 0  9995
2 44882  97.8546 117.9579 0015105  39.2855 320.9455 14.88027624223254
CBERS 4A                
1 44883U 19093E   24034.49554231  .00001652  00000+0  21700-3 0  9991
2 44883  97.8435 113.4791 0002704 108.8214 251.3292 14.81560776223048
WEILAI 1R               
1 44884U 19093F   24034.51690179  .00004450  00000+0  49675-3 0  9997
2 44884  97.8469 117.1195 0013208  43.8360 316.3902 14.87444949223270
YUHENG                  
1 44885U 19093G   24034.49989028  .00004890  00000+0  53405-3 0  9993
2 44885  97.8503 118.2768 0013821  44.0403 316.1912 14.88284098223323
SHUNTIAN                
1 44886U 19093H   24034.47505353  .00002732  00000+0  31400-3 0  9991
2 44886  97.8551 118.5290 0015115  51.2418 309.0145 14.86546740223304
2019-093L               
1 44889U 19093L   24034.50323166  .00003308  00000+0  39141-3 0  9998
2 44889  97.8365 113.2556 0015143  36.2816 323.9423 14.85201262223011
ELEKTRO-L 3             
1 44903U 19095A   24034.51258073 -.00000079  00000+0  00000+0 0  9993
2 44903   0.0510 278.4736 0001013  47.3775  67.9132  1.00271973 15030
GONETS-M 14             
1 44905U 19096A   24034.58635392  .00000022  00000+0  84430-4 0  9997
2 44905  82.5197 260.6285 0012997 240.3140 119.6646 12.42865404186270
GONETS-M 15             
1 44906U 19096B   24034.53199393  .00000028  00000+0  13073-3 0  9999
2 44906  82.5217 260.9782 0014961 263.5688  96.3688 12.42867675186231
GONETS-M 16             
1 44907U 19096C   24034.55875624  .00000023  00000+0  98116-4 0  9997
2 44907  82.5162 260.3018 0011246 307.2983  52.7071 12.42902839186227
RS-44 & BREEZE-KM R/B   
1 44909U 19096E   24034.56193606  .00000030  00000+0  78342-4 0  9990
2 44909  82.5218 194.2059 0217453   6.2649 354.1091 12.79726310191757
JILIN-1 KUANFU 01       
1 45016U 20003A   24034.52831652  .00005243  00000+0  30156-3 0  9997
2 45016  97.5968 108.0497 0007402 151.0386 209.1256 15.12881540224703
XINGYUN-2 01            
1 45602U 20028A   24034.52533620  .00002451  00000+0  17843-3 0  9995
2 45602  97.4527  39.8000 0009535 295.9911  64.0333 15.04653719204489
XINGYUN-2 02            
1 45603U 20028B   24034.51095840  .00003390  00000+0  24514-3 0  9998
2 45603  97.5219  48.3337 0012672   0.9271 359.1976 15.04639057204486
HAIYANG-1D              
1 45721U 20036A   24034.48014301  .00000290  00000+0  11900-3 0  9998
2 45721  98.5775 335.9512 0003588 123.8025 236.3501 14.34214329191032
M2 PATHFINDER           
1 45727U 20037E   24034.45660329  .00003021  00000+0  27501-3 0  9998
2 45727  97.7671 211.7833 0010661 208.9898 151.0732 14.95893012195799
GAOFEN DUOMO (GFDM)     
1 45856U 20042A   24034.52863711  .00001239  00000+0  18372-3 0  9990
2 45856  97.8842 108.9708 0012542   7.7778 352.3624 14.76785098193396
BY70-2                  
1 45857U 20042B   24034.50242700  .00035787  00000+0  24606-2 0  9999
2 45857  97.9187 122.3563 0007562 307.0033  53.0500 15.05802468194141
ZINYUAN-3               
1 45939U 20051A   24034.53658581  .00006854  00000+0  30733-3 0  9993
2 45939  97.3785 113.6670 0010868 103.3294 256.9154 15.21481907195881
TIANQI-10               
1 45941U 20051C   24034.53834291  .00060958  00000+0  75699-3 0  9995
2 45941  97.4061 136.4799 0005816   7.2277 352.9063 15.59795684197279
Q-SAT                   
1 46026U 20054B   24034.48342646  .00058530  00000+0  76574-3 0  9991
2 46026  97.3481 125.6610 0007291  45.3547 314.8302 15.58409824195316
GLOBAL-8                
1 46089U 20055BQ  24034.53727534  .00136342  00000+0  90634-3 0  9991
2 46089  52.9816 220.7965 0004511 173.6931 186.4144 15.74527522203263
TIANTUO 5               
1 46234U 20058C   24034.49526134  .00014673  00000+0  45269-3 0  9990
2 46234  97.3220  93.3710 0014245 135.6928 224.5458 15.33576209192101
TYVAK-0172              
1 46267U 20059C   24034.48361280  .00011765  00000+0  93377-3 0  9997
2 46267  97.8386 235.7078 0002872  21.0177 339.1164 15.00654819186525
ION-MK01                
1 46274U 20061C   24034.13930216  .00009455  00000+0  36569-3 0  9994
2 46274  97.3196 100.5924 0004495 185.8496 174.2691 15.26416205189352
UPMSAT-2                
1 46276U 20061E   24034.16641226  .00011083  00000+0  39534-3 0  9994
2 46276  97.3173 102.3786 0000654 145.1031 215.0252 15.29054554189515
NEMO-HD                 
1 46277U 20061F   24034.48704240  .00005769  00000+0  24205-3 0  9999
2 46277  97.3175 100.4409 0000482 151.9836 208.1428 15.23861982189418
SIMBA                   
1 46279U 20061H   24034.40866166  .00038565  00000+0  10219-2 0  9998
2 46279  97.3710 105.3621 0002444 342.3873  17.7287 15.38241665189099
TRISAT                  
1 46280U 20061J   24034.17955241  .00032145  00000+0  94059-3 0  9990
2 46280  97.3597 103.6992 0002369 349.7733  10.3462 15.35186979189017
PICASSO-BEL             
1 46281U 20061K   24034.20316264  .00097489  00000+0  14253-2 0  9990
2 46281  97.3666 109.5742 0003575 298.4803  61.6091 15.55280736189386
DIDO 3                  
1 46284U 20061N   24034.50075059  .00016317  00000+0  62377-3 0  9992
2 46284  97.3693 101.6418 0002490  11.4443 348.6852 15.26676053188842
FLOCK 4V-14             
1 46286U 20061Q   24034.16622941  .00022849  00000+0  66913-3 0  9991
2 46286  97.3740 107.1167 0002528 341.3344  18.7807 15.35231175189192
AMICALSAT               
1 46287U 20061R   24034.15436387  .00018215  00000+0  65686-3 0  9996
2 46287  97.3701 102.1848 0002195  26.2763 333.8588 15.28580858188884
3CAT-5A                 
1 46292U 20061W   24034.14608662  .00006279  00000+0  30433-3 0  9997
2 46292  97.3691  98.3288 0002609 354.8394   5.2813 15.18870283188617
3CAT-5B                 
1 46293U 20061X   24034.48197366  .00006301  00000+0  30394-3 0  9991
2 46293  97.3696  98.9192 0002400 349.7138  10.4047 15.19035621188652
OSM-1 CICERO            
1 46294U 20061Y   24034.49066638  .00012086  00000+0  48170-3 0  9998
2 46294  97.3707 102.0584 0001884 338.2582  21.8575 15.25356010188881
TYVAK-0171              
1 46295U 20061Z   24034.18384932  .01280030  87262-3  25681-2 0  9992
2 46295  97.3579 115.6263 0008725 289.9531  70.0807 15.99871461189642
FLOCK 4V-10             
1 46296U 20061AA  24034.16522921  .00020324  00000+0  59766-3 0  9993
2 46296  97.3744 107.3470 0001056  13.0165 347.1105 15.35125499189163
FLOCK 4V-13             
1 46297U 20061AB  24034.17385282  .00018800  00000+0  56238-3 0  9999
2 46297  97.3737 107.3166 0000461  91.3259 268.8037 15.34601627189142
TTU100                  
1 46312U 20061AS  24034.48529212  .00043378  00000+0  10832-2 0  9991
2 46312  97.3751 108.1779 0001605 251.3902 108.7170 15.40037965189245
KEPLER-2 (TARS)         
1 46319U 20061AZ  24034.15233159  .00022363  00000+0  75072-3 0  9993
2 46319  97.3721 104.6650 0000830 204.3530 155.7672 15.30875813189040
NAPA-1                  
1 46320U 20061BA  24034.50606085  .00009892  00000+0  45664-3 0  9992
2 46320  97.3741 100.7497 0001332 228.5952 131.5170 15.20413694188817
FLOCK 4V-2              
1 46321U 20061BB  24034.16748518  .00711804  21602-3  18857-2 0  9994
2 46321  97.3209 115.9281 0004898 279.1615  80.9106 15.94670853189667
JILIN-1 GAOFEN 3B       
1 46454U 20065A   24034.52387203  .00010167  00000+0  45052-3 0  9992
2 46454  97.3643  82.0813 0010981 339.1421  20.9365 15.21760425186925
JILIN-1 GAOFEN 3E       
1 46457U 20065D   24034.53108181  .00010117  00000+0  45010-3 0  9991
2 46457  97.3651  82.1928 0010226 359.9998   0.1236 15.21631487186928
JILIN-1 GAOFEN 3F       
1 46458U 20065E   24034.57229480  .00009434  00000+0  41969-3 0  9991
2 46458  97.3584  81.1697 0010309 348.6070  11.4931 15.21651718186931
JILIN-1 GAOFEN 3G       
1 46459U 20065F   24034.55764883  .00010180  00000+0  45157-3 0  9994
2 46459  97.3701  83.2026 0011259 353.3066   6.8018 15.21722130186936
JILIN-1 GAOFEN 3H       
1 46460U 20065G   24034.51623618  .00009358  00000+0  41802-3 0  9990
2 46460  97.3596  81.3060 0010483 351.1825   8.9225 15.21513353186921
JILIN-1 GAOFEN 3J       
1 46462U 20065J   24034.53563541  .00010476  00000+0  46443-3 0  9991
2 46462  97.3640  82.1743 0010174 349.0396  11.0617 15.21742269186937
HAIYANG-2C              
1 46469U 20066A   24034.52033729 -.00000029  00000+0  47083-4 0  9994
2 46469  65.9942 208.1112 0014048 264.3119  95.6347 13.83375407169892
